STARLINK-30895          
1 58418U 23180S   26068.14532811  .00000076  00000+0  12294-4 0  9991
2 58418  43.0029  55.5420 0001198 279.4238  80.6478 15.27575728127430
FLOCK 4G-26             
1 62633U 25009AA  26068.80489479  .00011283  00000+0  42469-3 0  9999
2 62633  97.4054 151.3913 0001988 299.1273  60.9767 15.27281631 63733
